[{"OBJECT_NAME":"STARLINK-36567","OBJECT_ID":"2026-014W","EPOCH":"2026-03-09T15:20:44.953152","MEAN_MOTION":15.7522697,"ECCENTRICITY":0.000106,"INCLINATION":97.2839,"RA_OF_ASC_NODE":313.5403,"ARG_OF_PERICENTER":51.3813,"MEAN_ANOMALY":308.7547,"EPHEMERIS_TYPE":0,"CLASSIFICATION_TYPE":"U","NORAD_CAT_ID":67552,"ELEMENT_SET_NO":999,"REV_AT_EPOCH":855,"BSTAR":0.0014748,"MEAN_MOTION_DOT":0.00226136,"MEAN_MOTION_DDOT":0},{"OBJECT_NAME":"FLOCK 4BE-10","OBJECT_ID":"2024-149AM","EPOCH":"2026-03-09T23:11:04.477920","MEAN_MOTION":15.73804605,"ECCENTRICITY":0.00059918,"INCLINATION":97.3736,"RA_OF_ASC_NODE":155.157,"ARG_OF_PERICENTER":229.3829,"MEAN_ANOMALY":130.6914,"EPHEMERIS_TYPE":0,"CLASSIFICATION_TYPE":"U","NORAD_CAT_ID":60503,"ELEMENT_SET_NO":999,"REV_AT_EPOCH":8723,"BSTAR":0.0018232079,"MEAN_MOTION_DOT":0.00264399,"MEAN_MOTION_DDOT":0}]
